{
  "type": "FeatureCollection",
  "features": [
    {
      "type": "Feature",
      "properties": {
        "norad_id": 30815,
        "name": "FENGYUN 1C DEB",
        "group": "fengyun-1c-debris",
        "lat": 23.607495279090937,
        "lon": 128.05212357178857,
        "alt_km": 652.4618146816701,
        "timestamp": "2025-12-03T13:52:09.840561+00:00",
        "meta_object_name": "FENGYUN 1C DEB",
        "meta_object_id": "1999-025AUZ",
        "meta_epoch": "2025-11-30T09:15:26.568288",
        "meta_mean_motion": 14.72583918,
        "meta_eccentricity": 0.00021035,
        "meta_inclination": 99.3008,
        "meta_ra_of_asc_node": 128.5096,
        "meta_arg_of_pericenter": 274.3036,
        "meta_mean_anomaly": 115.8666,
        "meta_ephemeris_type": 0,
        "meta_classification_type": "U",
        "meta_norad_cat_id": 30815,
        "meta_element_set_no": 999,
        "meta_rev_at_epoch": 97598,
        "meta_bstar": 0.0044563323,
        "meta_mean_motion_dot": 0.00028405,
        "meta_mean_motion_ddot": 0,
        "tle_line1": "1 30815U 99025AUZ 25334.38572417  .00028405  00000+0  44563-2 0  9998",
        "tle_line2": "2 30815  99.3008 128.5096 0002103 274.3036 115.8666 14.72583918975989"
      },
      "geometry": {
        "type": "Point",
        "coordinates": [
          128.05212357178857,
          23.607495279090937
        ]
      }
    },
    {
      "type": "Feature",
      "properties": {
        "norad_id": 30816,
        "name": "FENGYUN 1C DEB",
        "group": "fengyun-1c-debris",
        "lat": 20.4997605976249,
        "lon": 44.65690634836494,
        "alt_km": 813.5380627979102,
        "timestamp": "2025-12-03T13:52:09.840572+00:00",
        "meta_object_name": "FENGYUN 1C DEB",
        "meta_object_id": "1999-025AVA",
        "meta_epoch": "2025-12-03T03:51:44.586144",
        "meta_mean_motion": 14.17907406,
        "meta_eccentricity": 0.00531485,
        "meta_inclination": 98.9162,
        "meta_ra_of_asc_node": 47.6032,
        "meta_arg_of_pericenter": 82.9528,
        "meta_mean_anomaly": 331.2803,
        "meta_ephemeris_type": 0,
        "meta_classification_type": "U",
        "meta_norad_cat_id": 30816,
        "meta_element_set_no": 999,
        "meta_rev_at_epoch": 96258,
        "meta_bstar": 0.0021974002,
        "meta_mean_motion_dot": 4.513e-05,
        "meta_mean_motion_ddot": 0,
        "tle_line1": "1 30816U 99025AVA 25337.16093271  .00004513  00000+0  21974-2 0  9999",
        "tle_line2": "2 30816  98.9162  47.6032 0053148  82.9528 331.2803 14.17907406962581"
      },
      "geometry": {
        "type": "Point",
        "coordinates": [
          44.65690634836494,
          20.4997605976249
        ]
      }
    },
    {
      "type": "Feature",
      "properties": {
        "norad_id": 30817,
        "name": "FENGYUN 1C DEB",
        "group": "fengyun-1c-debris",
        "lat": -45.38743628905403,
        "lon": -22.83951595731032,
        "alt_km": 867.4332869324289,
        "timestamp": "2025-12-03T13:52:09.840582+00:00",
        "meta_object_name": "FENGYUN 1C DEB",
        "meta_object_id": "1999-025AVB",
        "meta_epoch": "2025-12-02T05:30:54.160128",
        "meta_mean_motion": 14.0070687,
        "meta_eccentricity": 0.0057376,
        "meta_inclination": 98.7859,
        "meta_ra_of_asc_node": 326.8455,
        "meta_arg_of_pericenter": 274.6945,
        "meta_mean_anomaly": 84.7669,
        "meta_ephemeris_type": 0,
        "meta_classification_type": "U",
        "meta_norad_cat_id": 30817,
        "meta_element_set_no": 999,
        "meta_rev_at_epoch": 95762,
        "meta_bstar": 0.00035922,
        "meta_mean_motion_dot": 5e-06,
        "meta_mean_motion_ddot": 0,
        "tle_line1": "1 30817U 99025AVB 25336.22979352  .00000500  00000+0  35922-3 0  9990",
        "tle_line2": "2 30817  98.7859 326.8455 0057376 274.6945  84.7669 14.00706870957627"
      },
      "geometry": {
        "type": "Point",
        "coordinates": [
          -22.83951595731032,
          -45.38743628905403
        ]
      }
    },
    {
      "type": "Feature",
      "properties": {
        "norad_id": 30820,
        "name": "FENGYUN 1C DEB",
        "group": "fengyun-1c-debris",
        "lat": -38.3863752069219,
        "lon": -112.91282181253045,
        "alt_km": 790.3902645273729,
        "timestamp": "2025-12-03T13:52:09.840593+00:00",
        "meta_object_name": "FENGYUN 1C DEB",
        "meta_object_id": "1999-025AVE",
        "meta_epoch": "2025-12-01T05:13:35.130144",
        "meta_mean_motion": 14.21242439,
        "meta_eccentricity": 0.0051773,
        "meta_inclination": 98.6766,
        "meta_ra_of_asc_node": 71.7167,
        "meta_arg_of_pericenter": 219.591,
        "meta_mean_anomaly": 170.3692,
        "meta_ephemeris_type": 0,
        "meta_classification_type": "U",
        "meta_norad_cat_id": 30820,
        "meta_element_set_no": 999,
        "meta_rev_at_epoch": 96260,
        "meta_bstar": 0.002337,
        "meta_mean_motion_dot": 5.118e-05,
        "meta_mean_motion_ddot": 0,
        "tle_line1": "1 30820U 99025AVE 25335.21776771  .00005118  00000+0  23370-2 0  9995",
        "tle_line2": "2 30820  98.6766  71.7167 0051773 219.5910 170.3692 14.21242439962609"
      },
      "geometry": {
        "type": "Point",
        "coordinates": [
          -112.91282181253045,
          -38.3863752069219
        ]
      }
    },
    {
      "type": "Feature",
      "properties": {
        "norad_id": 30821,
        "name": "FENGYUN 1C DEB",
        "group": "fengyun-1c-debris",
        "lat": 56.490711511270376,
        "lon": 105.41285846252119,
        "alt_km": 782.844016330665,
        "timestamp": "2025-12-03T13:52:09.840603+00:00",
        "meta_object_name": "FENGYUN 1C DEB",
        "meta_object_id": "1999-025AVF",
        "meta_epoch": "2025-12-01T08:43:29.259840",
        "meta_mean_motion": 14.49523426,
        "meta_eccentricity": 0.00862987,
        "meta_inclination": 99.1021,
        "meta_ra_of_asc_node": 117.0363,
        "meta_arg_of_pericenter": 240.0336,
        "meta_mean_anomaly": 149.0962,
        "meta_ephemeris_type": 0,
        "meta_classification_type": "U",
        "meta_norad_cat_id": 30821,
        "meta_element_set_no": 999,
        "meta_rev_at_epoch": 98624,
        "meta_bstar": 0.0010654422,
        "meta_mean_motion_dot": 4.23e-05,
        "meta_mean_motion_ddot": 0,
        "tle_line1": "1 30821U 99025AVF 25335.36353310  .00004230  00000+0  10654-2 0  9997",
        "tle_line2": "2 30821  99.1021 117.0363 0086298 240.0336 149.0962 14.49523426986240"
      },
      "geometry": {
        "type": "Point",
        "coordinates": [
          105.41285846252119,
          56.490711511270376
        ]
      }
    },
    {
      "type": "Feature",
      "properties": {
        "norad_id": 30822,
        "name": "FENGYUN 1C DEB",
        "group": "fengyun-1c-debris",
        "lat": 26.28973800461843,
        "lon": -169.75567714714418,
        "alt_km": 903.086734616506,
        "timestamp": "2025-12-03T13:52:09.840614+00:00",
        "meta_object_name": "FENGYUN 1C DEB",
        "meta_object_id": "1999-025AVG",
        "meta_epoch": "2025-12-03T08:08:01.869792",
        "meta_mean_motion": 14.11322281,
        "meta_eccentricity": 0.00733008,
        "meta_inclination": 98.7366,
        "meta_ra_of_asc_node": 5.6551,
        "meta_arg_of_pericenter": 312.3393,
        "meta_mean_anomaly": 67.7213,
        "meta_ephemeris_type": 0,
        "meta_classification_type": "U",
        "meta_norad_cat_id": 30822,
        "meta_element_set_no": 999,
        "meta_rev_at_epoch": 96569,
        "meta_bstar": 0.00046053114,
        "meta_mean_motion_dot": 8.1e-06,
        "meta_mean_motion_ddot": 0,
        "tle_line1": "1 30822U 99025AVG 25337.33891053  .00000810  00000+0  46053-3 0  9991",
        "tle_line2": "2 30822  98.7366   5.6551 0073300 312.3393  67.7213 14.11322281965691"
      },
      "geometry": {
        "type": "Point",
        "coordinates": [
          -169.75567714714418,
          26.28973800461843
        ]
      }
    },
    {
      "type": "Feature",
      "properties": {
        "norad_id": 30823,
        "name": "FENGYUN 1C DEB",
        "group": "fengyun-1c-debris",
        "lat": -0.20207249757549683,
        "lon": -61.09840561192958,
        "alt_km": 853.4328307950791,
        "timestamp": "2025-12-03T13:52:09.840624+00:00",
        "meta_object_name": "FENGYUN 1C DEB",
        "meta_object_id": "1999-025AVH",
        "meta_epoch": "2025-12-02T22:13:04.439712",
        "meta_mean_motion": 14.02530933,
        "meta_eccentricity": 0.01341286,
        "meta_inclination": 98.7611,
        "meta_ra_of_asc_node": 118.3054,
        "meta_arg_of_pericenter": 111.9391,
        "meta_mean_anomaly": 15.7733,
        "meta_ephemeris_type": 0,
        "meta_classification_type": "U",
        "meta_norad_cat_id": 30823,
        "meta_element_set_no": 999,
        "meta_rev_at_epoch": 95896,
        "meta_bstar": 0.00074109072,
        "meta_mean_motion_dot": 1.194e-05,
        "meta_mean_motion_ddot": 0,
        "tle_line1": "1 30823U 99025AVH 25336.92574583  .00001194  00000+0  74109-3 0  9991",
        "tle_line2": "2 30823  98.7611 118.3054 0134128 111.9391  15.7733 14.02530933958969"
      },
      "geometry": {
        "type": "Point",
        "coordinates": [
          -61.09840561192958,
          -0.20207249757549683
        ]
      }
    }
  ]
}